#dP2020  1  3  0  0  0.00000000      96 __u+U ITR00 FIT  IAC
## 2086 432000.00000000   900.00000000 58851 0.0000000000000
+  106   C06C07C08C09C10C11C12C13C14C16C19C20C21C22C23C24C25
+        C26C27C28C29C30C32C33C34C35C36C37E01E02E03E04E05E07
+        E08E09E11E12E13E14E15E18E19E21E24E25E26E27E30E31E33
+        E36G01G02G03G04G05G06G07G08G09G10G11G12G13G14G15G16
+        G17G18G19G20G21G22G23G24G25G26G27G28G29G30G31G32R01
+        R02R03R04R05R07R08R09R11R12R13R14R15R16R17R18R19R20
+        R21R22R23R26  0  0  0  0  0  0  0  0  0  0  0  0  0
++         9 10  9  8  9  8  8  8  8  8  8  8  8  8  8  8  8
++         8  8  8  8  8  8  8  8  9  8  8  4  4  4  4  4  4
++         4  4  4  4  4  4  4  4  4  4  4  4  4  4  4  4  4
++         4  4  3  4  4  3  3  4  3  3  4  3  4  4  4  4  3
++         4  4  3  4  3  3  3  4  4  3  3  3  3  3  3  4  6
++         6  5  5  5  5  6  5  5  5  6  5  5  6  6  5  6  6
++         5  5  5  7  0  0  0  0  0  0  0  0  0  0  0  0  0
%c M  cc GPS ccc cccc cccc cccc cccc ccccc ccccc ccccc ccccc
%c cc cc ccc ccc cccc cccc cccc cccc ccccc ccccc ccccc ccccc
%f  0.0000000  0.000000000  0.00000000000  0.000000000000000
%f  0.0000000  0.000000000  0.00000000000  0.000000000000000
%i    0    0    0    0      0      0      0      0         0
%i    0    0    0    0      0      0      0      0         0
/* INFORMATION & ANALYSIS CENTER (IAC)      ULTRA-RAPID DATA
/* S/V CLOCKS ARE ALIGNED TO GNSS TIME                      
/* G:C1WC2W R:C1PC2P E:C1XC5X C:C2IC6I J:C1CC2S             
/* PCV:IGS14_2082 OL/AL:FES2004  NONE     YN ORB:CoN CLK:CoN
*  2020 01 03 11  0  0.00000000
PC06 -13043.847620  38111.695205 -11406.438326    269.094354
PC07 -10616.048010  24162.616218  33101.863842    124.503606
PC08 -24456.292721  25893.171100 -22729.330098    -72.774392
PC09  -4823.975818  41594.817950   2924.019398    234.441668
PC10   5233.655869  30372.681499  29107.766798   -523.937797
PC11  -2165.654417  24490.439910 -13189.454778    -98.794577
PC12 -14393.075317  23474.221937   4678.908229    306.757082
PC13 -10280.259929  27005.383241 -30708.134285    187.784754
PC14   8710.205697  24478.823097 -10226.233944    399.798591
PC16 -11417.522196  39211.740955 -10060.457077   -876.183787
PC19 -15333.809082 -23255.313022   1606.838405    287.835155
PC20  -1227.265372 -22058.065045  17045.182180   -504.924102
PC21 -14056.833436   7703.304440 -22831.449643     52.838484
PC22 -20753.503325 -10938.569143 -15096.139383   -617.240917
PC23  26748.225248   3055.476897   7336.870036   -869.619896
PC24  -8107.950239  15908.546905  21447.161209   -893.563840
PC25  13967.618246  12984.023174  20362.906706   -468.828504
PC26 -23914.375835   9959.164149  10417.520485    520.255185
PC27  18062.603412 -17023.592661 -12782.164509    253.980322
PC28  16358.757645   1973.969538 -22512.478876    244.965886
PC29  -5894.103259 -19508.462257  19064.172447    168.592404
PC30   8364.654371 -26305.554514   4174.321982    250.300210
PC32  14032.529926  -7799.966335  22832.812790   -854.695562
PC33  15423.398840  23206.518479  -1649.896283   -741.153704
PC34  -8184.027754  26279.846084  -4525.946471   -361.493655
PC35 -16424.019114  -1603.443650  22506.263368   -727.113557
PC36 -13482.715403 -13359.810909 -20433.634905   -856.035621
PC37  24445.268860  -9075.776926  -9896.787113   -934.034839
PE01 -28267.317956  -4407.463298   7615.315993   -765.828151
PE02  28242.925798   4350.468633  -7683.405199    103.175062
PE03  17629.754821   2757.604208  23611.187115   -250.958910
PE04 -11091.534160  18476.728839 -20294.469823   -438.035669
PE05  13903.656372  22593.278599  13125.753850   -417.276525
PE07  -2078.835897 -29102.798091   4960.502561   -321.644994
PE08  10736.543476 -18689.259248  20277.983041   6240.076077
PE09   2361.433183  29101.074358  -4919.513363   6200.706504
PE11  -6957.112624  22274.817731 -18200.310800    632.286937
PE12 -21854.946468  19943.604053   -611.733390   6019.811586
PE13   7105.607221 -22327.719567  18099.836430    397.012491
PE14  20918.946768  -3983.607849 -24315.691245   -854.215397
PE15  21646.089683 -20170.026055    881.493407    882.128487
PE18 -14897.279916  10924.761006  15383.166353   -950.552002
PE19 -17625.708117  -5199.468908 -23209.655081     -2.132058
PE21 -22600.158947 -15541.300244 -11137.598337   -574.927681
PE24   3447.172478  17741.041342  23428.275700   5682.530367
PE25  22517.874508  15583.148053  11237.796375   -500.151366
PE26 -11882.734682 -11395.728552  24610.290769   3689.576560
PE27  -3601.060767 -17688.873174 -23455.621851    311.523984
PE30  17592.435632  -9337.417987 -21897.199043   4254.328802
PE31 -17455.735241   9447.200383  21969.687129   -471.169212
PE33 -23511.782532   6151.900301  16909.214867   -471.170801
PE36  11615.325752  11391.121947 -24716.042156    616.088946
PG01  -3868.016767  16683.716755 -20412.508905   -250.494792
PG02  21557.592536 -14930.576866   4460.390041   -378.800562
PG03   7933.780565  19617.398501 -16165.116088    -64.958570
PG04   -290.439210  26140.423880   4645.440698    -29.058182
PG05  12739.023108  -9552.536301  21146.357463     -5.575321
PG06  24804.935728  -5265.135456  -7907.190352   -171.935405
PG07  14204.836088   9786.083860  20599.208266   -183.967341
PG08  -6209.606438  25050.690000   5756.893021    -18.961662
PG09   7657.467839  21565.491367  13413.722361   -123.783083
PG10 -23359.616876 -10258.111843  -7731.483306   -195.976739
PG11  -4614.978032  22537.317036 -14002.000461   -400.829623
PG12  -2924.762680 -18854.767699 -18772.500668    166.347345
PG13  12913.850182 -19953.637597  11649.998392    -22.448151
PG14 -15519.610939   7439.524822 -19851.834807    -41.023667
PG15   3473.190209 -25675.709078   4517.362611   -261.202245
PG16 -14034.202651   6771.160175  21379.109490   -109.674613
PG17  13930.251880   4446.010711 -21749.115482    192.111705
PG18 -11680.476383  18362.280108 -15667.718186    110.991416
PG19  15498.595092  -4041.924350 -21481.969332   -217.573601
PG20 -22004.395513 -14706.612271   3198.473095    527.747842
PG21 -16366.088677  -7671.016238  20185.386551    -61.253114
PG22    303.947927  17489.789545 -19794.490898   -780.505206
PG23   2359.464601  25606.573549   6129.432299   -145.501920
PG24   5168.807989 -18151.038157 -18733.475561     -7.077893
PG25 -15665.433468 -19518.554409  -9505.332250    -16.679327
PG26 -20726.000459    380.852667  16701.847084    119.429093
PG27 -12146.324589  17753.613976  15246.516349   -169.968662
PG28  21978.204178  11562.014992  -8627.646594    747.322628
PG29  -5324.233859 -22140.278382  13624.483940      2.000463
PG30  22606.678437   1951.972183  13992.774678   -120.649672
PG31 -25470.050986   6416.992725  -5395.852573    -14.078476
PG32 -14991.448101  -3362.641254 -21610.236331    174.344503
PR01  10534.111661  23209.136430  -1183.107878     55.082267
PR02  14370.431989  11132.469959  17899.141083    405.460628
PR03   8921.184284  -6791.256329  22947.818659      7.572887
PR04  -1745.398994 -20586.484344  14982.595183     34.180205
PR05 -11279.081829 -22841.095174  -1544.220151     42.423417
PR07  -8658.431308   7241.161535 -22843.748146    -31.537283
PR08   1639.105719  20600.656647 -14897.497262     13.333718
PR09 -25335.875617  -2584.254449   -590.208886    109.473155
PR11  -4475.107076  10641.411377  22756.762796     14.438913
PR12  13617.110249  10251.407627  18992.613190     93.589613
PR13  24931.743403   3821.357048   3777.461666    -33.057216
PR14  21282.337840  -4426.101671 -13341.567031     46.703669
PR15   5486.108350 -10274.447303 -22672.485624    105.606881
PR16 -14285.689579 -10063.699205 -18659.225652     -0.781416
PR17  17122.941360 -15593.147995 -10632.452945    289.230684
PR18  12033.766970 -21622.984912   6322.021054     20.234380
PR19   1100.758171 -16124.320595  19739.952927    -72.152445
PR20 -12487.710880     39.614360  22248.703188   -400.542556
PR21 -17104.857988  16150.001339   9905.415980    -95.840142
PR22 -10438.180329  21340.452935  -9115.837782     -8.208841
PR23   3902.465765  11711.349821 -22322.635016    277.372284
PR26 -10343.747929  -3399.918821  23085.823196   -413.388528
EOF
